[
  {
    "name": "STARLINK-31454",
    "noradId": "59014",
    "line1": "1 59014U 24036S   26176.74936028  .00000711  00000+0  36112-4 0  9990",
    "line2": "2 59014  53.1606 296.4830 0000709  60.9051 299.2021 15.30216073131863"
  },
  {
    "name": "STARLINK-31521",
    "noradId": "59015",
    "line1": "1 59015U 24036T   26176.74829921  .00003550  00000+0  13183-3 0  9990",
    "line2": "2 59015  53.1607 296.4767 0000776 351.1475   8.9512 15.30218508131868"
  },
  {
    "name": "STARLINK-31526",
    "noradId": "59016",
    "line1": "1 59016U 24036U   26176.56539791  .00002791  00000+0  10167-3 0  9999",
    "line2": "2 59016  53.1592 271.1523 0001310 122.5993 237.5135 15.31702890132205"
  },
  {
    "name": "STARLINK-31406",
    "noradId": "59017",
    "line1": "1 59017U 24036V   26176.71514947 -.00000338  00000+0  11177-5 0  9993",
    "line2": "2 59017  53.1586 281.3734 0000778  87.3757 272.7335 15.34414487132072"
  },
  {
    "name": "STARLINK-31527",
    "noradId": "59018",
    "line1": "1 59018U 24036W   26176.73881139  .00001429  00000+0  60312-4 0  9991",
    "line2": "2 59018  53.1615 296.4258 0000795  69.4781 290.6305 15.30218000131862"
  },
  {
    "name": "STARLINK-31436",
    "noradId": "59019",
    "line1": "1 59019U 24036X   26176.75887307  .00002261  00000+0  88414-4 0  9995",
    "line2": "2 59019  53.1587 296.5408 0000965  74.2091 285.9016 15.30213505131867"
  },
  {
    "name": "STARLINK-30996",
    "noradId": "59023",
    "line1": "1 59023U 24038A   26176.61544611  .00000324  00000+0  21293-4 0  9995",
    "line2": "2 59023  43.0019 137.5452 0001531 313.9022  46.1703 15.27577396132633"
  },
  {
    "name": "STARLINK-31006",
    "noradId": "59024",
    "line1": "1 59024U 24038B   26176.79257098 -.00000689  00000+0 -15515-4 0  9991",
    "line2": "2 59024  43.0048  86.1009 0001491 251.9897 108.0792 15.27562210131879"
  },
  {
    "name": "STARLINK-31178",
    "noradId": "59025",
    "line1": "1 59025U 24038C   26175.97205273  .00001813  00000+0  75377-4 0  9999",
    "line2": "2 59025  42.9987 141.3109 0001403 268.2006  91.8684 15.27591698131052"
  },
  {
    "name": "STARLINK-30863",
    "noradId": "59027",
    "line1": "1 59027U 24038E   26176.58236865  .00000791  00000+0  38274-4 0  9999",
    "line2": "2 59027  43.0003 138.1398 0001129 270.8784  89.1938 15.27580149131147"
  },
  {
    "name": "STARLINK-31206",
    "noradId": "59028",
    "line1": "1 59028U 24038F   26176.69309763  .00000427  00000+0  25012-4 0  9992",
    "line2": "2 59028  43.0011  72.0728 0000100   5.7633 354.3220 15.27580698132046"
  },
  {
    "name": "STARLINK-31224",
    "noradId": "59029",
    "line1": "1 59029U 24038G   26176.59764051  .00001598  00000+0  67553-4 0  9993",
    "line2": "2 59029  43.0014 137.4090 0001097 275.7452  84.3275 15.27583980131262"
  },
  {
    "name": "STARLINK-31186",
    "noradId": "59030",
    "line1": "1 59030U 24038H   26175.91052058  .00000290  00000+0  20062-4 0  9999",
    "line2": "2 59030  43.0031 141.7100 0001551 271.8926  88.1748 15.27577998131158"
  },
  {
    "name": "STARLINK-31211",
    "noradId": "59031",
    "line1": "1 59031U 24038J   26176.59250125  .00000456  00000+0  26073-4 0  9992",
    "line2": "2 59031  42.9990 137.3688 0000994 273.5860  86.4878 15.27580662131156"
  },
  {
    "name": "STARLINK-30862",
    "noradId": "59032",
    "line1": "1 59032U 24038K   26176.83623556  .00000373  00000+0  23082-4 0  9997",
    "line2": "2 59032  42.9990 125.4217 0000846 271.8106  88.2649 15.27577663131314"
  },
  {
    "name": "STARLINK-31210",
    "noradId": "59033",
    "line1": "1 59033U 24038L   26176.88022433  .00001900  00000+0  78533-4 0  9998",
    "line2": "2 59033  43.0004 132.6392 0001231 257.6848 102.3866 15.27591392131405"
  },
  {
    "name": "STARLINK-31231",
    "noradId": "59034",
    "line1": "1 59034U 24038M   26176.35328575  .00004625  00000+0  17750-3 0  9997",
    "line2": "2 59034  43.0011 135.5638 0000866 205.3179 154.7630 15.27579746131150"
  },
  {
    "name": "STARLINK-31207",
    "noradId": "59035",
    "line1": "1 59035U 24038N   26176.61098125  .00001030  00000+0  46961-4 0  9996",
    "line2": "2 59035  43.0030 134.0639 0001318 291.9424  68.1288 15.27579389131367"
  },
  {
    "name": "STARLINK-31217",
    "noradId": "59036",
    "line1": "1 59036U 24038P   26176.66382892  .00002183  00000+0  88873-4 0  9997",
    "line2": "2 59036  43.0026  39.4359 0000896 264.1499  95.9250 15.27568201132453"
  },
  {
    "name": "STARLINK-31208",
    "noradId": "59037",
    "line1": "1 59037U 24038Q   26176.58621263  .00001767  00000+0  73717-4 0  9995",
    "line2": "2 59037  43.0020 138.1477 0001081 282.2965  77.7766 15.27587670131317"
  },
  {
    "name": "STARLINK-31235",
    "noradId": "59038",
    "line1": "1 59038U 24038R   26176.86995700  .00000574  00000+0  30372-4 0  9992",
    "line2": "2 59038  43.0044 132.5648 0001231 269.7632  90.3079 15.27577372131349"
  },
  {
    "name": "STARLINK-31220",
    "noradId": "59039",
    "line1": "1 59039U 24038S   26176.87202221  .00002436  00000+0  97999-4 0  9990",
    "line2": "2 59039  43.0034 136.0259 0001206 263.2700  96.8014 15.27591566131300"
  },
  {
    "name": "STARLINK-31225",
    "noradId": "59040",
    "line1": "1 59040U 24038T   26176.59426169  .00005039  00000+0  19242-3 0  9996",
    "line2": "2 59040  43.0024 133.8979 0001025 264.2552  95.8183 15.27593608131192"
  },
  {
    "name": "STARLINK-31240",
    "noradId": "59041",
    "line1": "1 59041U 24038U   26176.56746404 -.00002291  00000+0 -73799-4 0  9998",
    "line2": "2 59041  42.9980 134.5963 0001033  32.7471 327.3444 15.27560187131290"
  },
  {
    "name": "STARLINK-31202",
    "noradId": "59042",
    "line1": "1 59042U 24038V   26176.87906336  .00030376  00000+0  10625-2 0  9995",
    "line2": "2 59042  43.0009 131.7823 0004037 226.0939 133.9580 15.28972389131411"
  },
  {
    "name": "STARLINK-31234",
    "noradId": "59043",
    "line1": "1 59043U 24038W   26175.90714876  .00000108  00000+0  13458-4 0  9994",
    "line2": "2 59043  43.0029 138.2374 0001222 273.8951  86.1761 15.27576449131083"
  },
  {
    "name": "STARLINK-31153",
    "noradId": "59044",
    "line1": "1 59044U 24038X   26176.86610175  .00000689  00000+0  34582-4 0  9993",
    "line2": "2 59044  43.0027 132.5350 0001312 269.3229  90.7473 15.27575991131230"
  },
  {
    "name": "STARLINK-31241",
    "noradId": "59045",
    "line1": "1 59045U 24038Y   26174.99559946  .00000225  00000+0  17716-4 0  9990",
    "line2": "2 59045  43.0017 143.4368 0001218 278.2253  81.8460 15.27578961131115"
  },
  {
    "name": "STARLINK-31205",
    "noradId": "59046",
    "line1": "1 59046U 24038Z   26175.96868813  .00001431  00000+0  61499-4 0  9992",
    "line2": "2 59046  43.0023 137.8392 0000848 241.4769 118.5997 15.27595209131206"
  },
  {
    "name": "STARLINK-31265",
    "noradId": "59074",
    "line1": "1 59074U 24041A   26176.72260296  .00001603  00000+0  67757-4 0  9997",
    "line2": "2 59074  43.0049  60.6014 0000900 272.3263  87.7485 15.27582402130793"
  },
  {
    "name": "STARLINK-31276",
    "noradId": "59075",
    "line1": "1 59075U 24041B   26176.69046786  .00001169  00000+0  52003-4 0  9995",
    "line2": "2 59075  43.0005  60.3630 0000915 265.5192  94.5555 15.27583588130844"
  },
  {
    "name": "STARLINK-31259",
    "noradId": "59076",
    "line1": "1 59076U 24041C   26176.69433238 -.00001579  00000+0 -47858-4 0  9997",
    "line2": "2 59076  43.0012  60.3894 0001389 286.0833  73.9865 15.27579036129746"
  },
  {
    "name": "STARLINK-31281",
    "noradId": "59077",
    "line1": "1 59077U 24041D   26176.69818431  .00000305  00000+0  20597-4 0  9995",
    "line2": "2 59077  43.0015  60.4228 0001013 269.1479  90.9257 15.27576836130846"
  },
  {
    "name": "STARLINK-31274",
    "noradId": "59078",
    "line1": "1 59078U 24041E   26176.72773558 -.00000561  00000+0 -10858-4 0  9995",
    "line2": "2 59078  43.0028  60.6378 0000634 294.5844  65.4942 15.27572954130794"
  },
  {
    "name": "STARLINK-31257",
    "noradId": "59079",
    "line1": "1 59079U 24041F   26176.38408838 -.00000421  00000+0 -57697-5 0  9992",
    "line2": "2 59079  43.0035  62.3613 0001197 278.6582  81.4134 15.27586798130748"
  },
  {
    "name": "STARLINK-31292",
    "noradId": "59081",
    "line1": "1 59081U 24041H   26176.37509336 -.00002115  00000+0 -67310-4 0  9993",
    "line2": "2 59081  43.0032  62.2961 0001360 291.3093  68.7614 15.27595168130735"
  },
  {
    "name": "STARLINK-31286",
    "noradId": "59082",
    "line1": "1 59082U 24041J   26176.70588661 -.00000473  00000+0 -76622-5 0  9991",
    "line2": "2 59082  43.0026  60.4803 0001122 257.5145 102.5581 15.27580317130877"
  },
  {
    "name": "STARLINK-31252",
    "noradId": "59083",
    "line1": "1 59083U 24041K   26176.50360671  .00000257  00000+0  18855-4 0  9990",
    "line2": "2 59083  43.0035 338.6442 0001239 273.6888  86.3822 15.27570839131763"
  },
  {
    "name": "STARLINK-31261",
    "noradId": "59084",
    "line1": "1 59084U 24041L   26176.73415668 -.00000304  00000+0 -15052-5 0  9995",
    "line2": "2 59084  43.0005  60.6812 0001262 241.4796 118.5928 15.27589769130846"
  },
  {
    "name": "STARLINK-31290",
    "noradId": "59085",
    "line1": "1 59085U 24041M   26176.68984088 -.00000262  00000+0 -19215-7 0  9997",
    "line2": "2 59085  43.0028  46.5097 0000804 282.0516  78.0246 15.27575893131096"
  },
  {
    "name": "STARLINK-31279",
    "noradId": "59086",
    "line1": "1 59086U 24041N   26176.74828852  .00003778  00000+0  14681-3 0  9992",
    "line2": "2 59086  43.0038  60.7896 0001406 266.5731  93.4960 15.27567474130840"
  },
  {
    "name": "STARLINK-31266",
    "noradId": "59087",
    "line1": "1 59087U 24041P   26176.38278865  .00001420  00000+0  61081-4 0  9995",
    "line2": "2 59087  43.0077  62.3535 0001344 289.1196  70.9510 15.27606058130796"
  }
]